STARLINK-4335           
1 53215U 22084AC  22233.58334491 -.01215549  00000+0 -29528-1 0  9996
2 53215  97.6555 293.3828 0001925 127.5517 206.1162 15.43839944  1307
STARLINK-4376           
1 53216U 22084AD  22233.58334491 -.01215168  00000+0 -29797-1 0  9992
2 53216  97.6555 293.3862 0001757 114.3259 213.5673 15.43563594  1300
STARLINK-4379           
1 53217U 22084AE  22233.58334491 -.01215300  00000+0 -29458-1 0  9995
2 53217  97.6555 293.3812 0001834 122.1660 213.6054 15.43904011  1302
STARLINK-4384           
1 53218U 22084AF  22233.58334491 -.01215094  00000+0 -29631-1 0  9999
2 53218  97.6555 293.3848 0001726 111.7453 219.3091 15.43726768  1301
STARLINK-4373           
1 53219U 22084AG  22233.58334491 -.01215052  00000+0 -29296-1 0  9991
2 53219  97.6555 293.3785 0001734 114.4566 225.0606 15.44060613  1303
STARLINK-4363           
1 53220U 22084AH  22233.58334491 -.01214930  00000+0 -29513-1 0  9999
2 53220  97.6555 293.3822 0001658 102.4893 231.9132 15.43840609  1302
STARLINK-4377           
1 53221U 22084AJ  22233.58334491 -.01215058  00000+0 -29023-1 0  9998
2 53221  97.6554 293.3792 0001716 113.2507 229.6698 15.44336212  1307
STARLINK-4381           
1 53222U 22084AK  22233.58334491 -.01215229  00000+0 -29451-1 0  9994
2 53222  97.6555 293.3804 0001811 120.6299 215.9210 15.43909310  1301
STARLINK-4354           
1 53223U 22084AL  22233.58334491 -.01215004  00000+0 -28867-1 0  9996
2 53223  97.6554 293.3779 0001711 113.2314 232.6177 15.44493059  1304
STARLINK-4356           
1 53224U 22084AM  22233.58334491 -.01214994  00000+0 -29414-1 0  9993
2 53224  97.6555 293.3792 0001707 110.9567 226.6398 15.43940941  1304
STARLINK-4358           
1 53225U 22084AN  22233.58334491 -.01215041  00000+0 -28149-1 0  9992
2 53225  97.6554 293.3783 0001701 113.6125 240.1859 15.45231343  1302
STARLINK-4359           
1 53226U 22084AP  22233.58334491 -.01215098  00000+0 -28890-1 0  9998
2 53226  97.6554 293.3784 0001767 118.4703 226.4541 15.44471742  1304
STARLINK-4366           
1 53227U 22084AQ  22233.58334491 -.01215038  00000+0 -27942-1 0  9990
2 53227  97.6554 293.3775 0001653 107.9135 249.0920 15.45446957  1304
STARLINK-4365           
1 53228U 22084AR  22233.58334491 -.01215015  00000+0 -28731-1 0  9993
2 53228  97.6554 293.3770 0001727 115.2631 232.5896 15.44631756  1306
STARLINK-4367           
1 53229U 22084AS  22233.58334491 -.01215026  00000+0 -27815-1 0  9998
2 53229  97.6554 293.3773 0001756 119.5017 239.2704 15.45578551  1303
STARLINK-4364           
1 53230U 22084AT  22233.58334491 -.01215030  00000+0 -27962-1 0  9998
2 53230  97.6554 293.3786 0001724 116.2978 239.8092 15.45425339  1305
STARLINK-4370           
1 53231U 22084AU  22233.58334491 -.01214962  00000+0 -27698-1 0  9998
2 53231  97.6554 293.3753 0001660 109.6012 251.5633 15.45700345  1310
STARLINK-4371           
1 53232U 22084AV  22233.58334491 -.01214984  00000+0 -27778-1 0  9992
2 53232  97.6554 293.3760 0001664 110.0534 249.7430 15.45616951  1300
STARLINK-4372           
1 53233U 22084AW  22233.58334491 -.01215006  00000+0 -27699-1 0  9991
2 53233  97.6554 293.3750 0001632 105.2619 256.6303 15.45700673  1306
STARLINK-4368           
1 53234U 22084AX  22233.58334491 -.01214914  00000+0 -27567-1 0  9993
2 53234  97.6553 293.3742 0001694 114.1272 249.5189 15.45836702  1305
FALCON 9 DEB            
1 53235U 22084AY  22233.37799978  .00195231  16702-4  54490-3 0  9991
2 53235  97.6704 294.4355 0010072 169.4005 190.7484 15.93606360  4860
FALCON 9 DEB            
1 53236U 22084AZ  22233.11841294  .00165294  12678-4  45147-3 0  9996
2 53236  97.6682 294.1526 0007337 169.8268 190.3156 15.94074331  4824
FALCON 9 DEB            
1 53237U 22084BA  22233.40682582  .00247463  26421-4  59433-3 0  9995
2 53237  97.6664 294.5280 0009913 151.7147 208.4669 15.96410040  4872
FALCON 9 DEB            
1 53238U 22084BB  22233.40257030  .00239339  24856-4  57354-3 0  9995
2 53238  97.6645 294.5297 0008851 143.4461 216.7420 15.96471832  4870
CSS (WENTIAN)           
1 53239U 22085A   22233.24141038  .00018062  00000+0  20639-3 0  9993
2 53239  41.4723 182.7020 0003437 143.4666 192.4424 15.61744671 74933
STARLINK-4056           
1 53242U 22086A   22233.58334491 -.01065678  00000+0 -86274-2 0  9996
2 53242  53.2173 264.5302 0007389 275.5020 234.8801 15.72628083  1301
STARLINK-4047           
1 53243U 22086B   22233.58334491  .00041460  00000+0  73481-3 0  9994
2 53243  53.2167 265.4067 0001697  56.7973 348.1705 15.49875554  1308
STARLINK-4125           
1 53244U 22086C   22233.58334491  .00041288  00000+0  73236-3 0  9991
2 53244  53.2171 265.4432 0002190  41.5064   6.5329 15.49853063  1300
STARLINK-4124           
1 53245U 22086D   22233.58334491  .00041310  00000+0  73323-3 0  9995
2 53245  53.2171 265.4189 0002042  59.3891 346.3813 15.49834672  1309
STARLINK-4131           
1 53246U 22086E   22233.58334491  .00041592  00000+0  73730-3 0  9990
2 53246  53.2160 265.4306 0001824  47.5319 359.1567 15.49867845  1306
STARLINK-4061           
1 53247U 22086F   22233.58334491 -.01053535  00000+0 -85240-2 0  9992
2 53247  53.2173 264.5297 0006859 343.0830 168.4941 15.72622332  1308
STARLINK-4135           
1 53248U 22086G   22233.58334491 -.01049733  00000+0 -85097-2 0  9998
2 53248  53.2173 264.5288 0002698  14.7272 137.4524 15.72627781  1304
STARLINK-4128           
1 53249U 22086H   22233.58334491 -.00005879  00000+0 -37437-4 0  9998
2 53249  53.2168 264.5400 0003568   7.9058 146.4543 15.73213307  1305
STARLINK-4059           
1 53250U 22086J   22233.58334491  .00066807  00000+0  47692-3 0  9999
2 53250  53.2182 264.5421 0003302  13.0164 140.2027 15.73181932  1305
STARLINK-4129           
1 53251U 22086K   22233.58334491  .00072528  00000+0  51736-3 0  9991
2 53251  53.2183 264.5376 0003329  15.0898 140.4318 15.73166864  1303
STARLINK-4132           
1 53252U 22086L   22233.58334491 -.00005972  00000+0 -38097-4 0  9999
2 53252  53.2181 264.5407 0002988  14.9751 138.8226 15.73222183  1309
STARLINK-4133           
1 53253U 22086M   22233.58334491 -.00030805  00000+0 -21513-3 0  9997
2 53253  53.2170 264.5373 0008528 304.9966 211.0890 15.73216068  1302
STARLINK-4134           
1 53254U 22086N   22233.58334491 -.00002766  00000+0 -15257-4 0  9992
2 53254  53.2182 264.5384 0003650   8.5835 146.2955 15.73207176  1302
STARLINK-4142           
1 53255U 22086P   22233.58334491  .00071384  00000+0  50743-3 0  9991
2 53255  53.2180 264.5334 0008760 306.4158 210.8217 15.73212611  1300
STARLINK-4147           
1 53256U 22086Q   22233.58334491 -.00011517  00000+0 -77674-4 0  9999
2 53256  53.2186 264.5366 0003465  13.3539 143.3503 15.73207734  1304
STARLINK-4144           
1 53257U 22086R   22233.58334491  .00071625  00000+0  51154-3 0  9998
2 53257  53.2184 264.5308 0002895   8.8008 150.3594 15.73145026  1308
STARLINK-4127           
1 53258U 22086S   22233.58334491 -.00007376  00000+0 -48143-4 0  9998
2 53258  53.2183 264.5332 0003041  16.3960 141.4932 15.73202070  1300
STARLINK-4140           
1 53259U 22086T   22233.58334491 -.00018376  00000+0 -12673-3 0  9999
2 53259  53.2187 264.5309 0003000  17.2407 142.4743 15.73202646  1300
STARLINK-4136           
1 53260U 22086U   22233.58334491  .00070628  00000+0  50415-3 0  9993
2 53260  53.2180 264.5300 0003046  20.3261 138.1643 15.73162639  1307
STARLINK-4062           
1 53261U 22086V   22233.58334491 -.00004257  00000+0 -25927-4 0  9992
2 53261  53.2185 264.5269 0003526   9.8440 151.6877 15.73168357  1303
STARLINK-4085           
1 53262U 22086W   22233.58334491 -.00006896  00000+0 -44690-4 0  9992
2 53262  53.2182 264.5272 0003245  11.7631 148.5605 15.73213211  1301
STARLINK-4130           
1 53263U 22086X   22233.58334491 -.00029058  00000+0 -20331-3 0  9993
2 53263  53.2173 264.5258 0002798  11.8608 150.2634 15.73195654  1305
STARLINK-3950           
1 53264U 22086Y   22233.58334491 -.00017010  00000+0 -11701-3 0  9990
2 53264  53.2182 264.5263 0002747  16.5706 144.3444 15.73195014  1300
STARLINK-4097           
1 53265U 22086Z   22233.58334491  .00071146  00000+0  50765-3 0  9992
2 53265  53.2187 264.5241 0003250  17.4722 145.8143 15.73168018  1306
STARLINK-4058           
1 53266U 22086AA  22233.58334491  .00032585  00000+0  23573-3 0  9994
2 53266  53.2184 264.5237 0003293  17.8802 144.7807 15.73191724  1304
STARLINK-4060           
1 53267U 22086AB  22233.58334491 -.00028493  00000+0 -19911-3 0  9991
2 53267  53.2186 264.5197 0003244  14.9903 150.0503 15.73210557  1307
STARLINK-4109           
1 53268U 22086AC  22233.58334491 -.00012049  00000+0 -81418-4 0  9994
2 53268  53.2183 264.5203 0003088  17.9751 145.7826 15.73225716  1305
STARLINK-4057           
1 53269U 22086AD  22233.58334491 -.00020226  00000+0 -14006-3 0  9999
2 53269  53.2187 264.5175 0002685  18.8851 147.4114 15.73189122  1300
STARLINK-4069           
1 53271U 22086AF  22233.58334491 -.00005650  00000+0 -35822-4 0  9996
2 53271  53.2186 264.5146 0003016  16.2044 151.1998 15.73208144  1303
STARLINK-4122           
1 53272U 22086AG  22233.58334491  .00072670  00000+0  51763-3 0  9992
2 53272  53.2185 264.5179 0003606  19.7403 145.7994 15.73198783  1303
STARLINK-4051           
1 53273U 22086AH  22233.58334491  .00073002  00000+0  52103-3 0  9992
2 53273  53.2185 264.5112 0002374  12.9970 155.7156 15.73154184  1304
STARLINK-4050           
1 53274U 22086AJ  22233.58334491 -.00007424  00000+0 -48437-4 0  9996
2 53274  53.2185 264.5149 0002739  22.8136 143.9252 15.73227346  1301
STARLINK-4179           
1 53275U 22086AK  22233.58334491  .00072143  00000+0  51397-3 0  9993
2 53275  53.2185 264.5104 0003711  16.6852 152.4026 15.73196927  1304
STARLINK-4174           
1 53276U 22086AL  22233.58334491  .00000516  00000+0  81136-5 0  9995
2 53276  53.2190 264.5152 0003222  12.8673 155.1246 15.73210356  1307
